ONEWEB-0589             
1 54655U 22166P   25259.02424467  .00000004  00000+0 -22767-4 0  9996
2 54655  87.9205 298.7040 0002616  81.5283 278.6148 13.21823021135323
ONEWEB-0590             
1 54656U 22166Q   25259.04777229  .00000085  00000+0  17436-3 0  9990
2 54656  87.9198 298.6755 0002344 102.0654 258.0743 13.21826582135313
ONEWEB-0591             
1 54657U 22166R   25259.06051155  .00000127  00000+0  27577-3 0  9990
2 54657  87.9205 298.6968 0002058  92.8130 267.3239 13.21823940135347
ONEWEB-0592             
1 54658U 22166S   25259.06366905  .00000060  00000+0  11309-3 0  9995
2 54658  87.9208 298.6511 0002085  93.8540 266.2833 13.21823834135228
ONEWEB-0593             
1 54659U 22166T   25259.08731234  .00000042  00000+0  69086-4 0  9995
2 54659  87.9202 298.6816 0002045  90.3992 269.7376 13.21824160135335
ONEWEB-0594             
1 54660U 22166U   25259.03055382 -.00000005  00000+0 -44815-4 0  9999
2 54660  87.9204 298.7094 0001877  93.7414 266.3935 13.21823829135342
ONEWEB-0595             
1 54661U 22166V   25259.08415491  .00000034  00000+0  50466-4 0  9995
2 54661  87.9203 298.6739 0001917 100.1562 259.9788 13.21822972135329
ONEWEB-0596             
1 54662U 22166W   25259.05735445  .00000117  00000+0  25205-3 0  9991
2 54662  87.9205 298.6945 0002016  95.8746 264.2618 13.21823456135325
